[{"OBJECT_NAME":"MEASAT 3D","OBJECT_ID":"2022-067B","EPOCH":"2026-03-04T03:59:38.679360","MEAN_MOTION":1.00271003,"ECCENTRICITY":0.0003153,"INCLINATION":0.0602,"RA_OF_ASC_NODE":305.3972,"ARG_OF_PERICENTER":22.7856,"MEAN_ANOMALY":345.1288,"EPHEMERIS_TYPE":0,"CLASSIFICATION_TYPE":"U","NORAD_CAT_ID":52904,"ELEMENT_SET_NO":999,"REV_AT_EPOCH":1359,"BSTAR":0,"MEAN_MOTION_DOT":-2.54e-6,"MEAN_MOTION_DDOT":0},{"OBJECT_NAME":"SES-22","OBJECT_ID":"2022-071A","EPOCH":"2026-03-03T23:41:03.847776","MEAN_MOTION":1.00273741,"ECCENTRICITY":0.0001017,"INCLINATION":0.019,"RA_OF_ASC_NODE":169.5566,"ARG_OF_PERICENTER":182.6973,"MEAN_ANOMALY":25.793,"EPHEMERIS_TYPE":0,"CLASSIFICATION_TYPE":"U","NORAD_CAT_ID":52933,"ELEMENT_SET_NO":999,"REV_AT_EPOCH":646,"BSTAR":0,"MEAN_MOTION_DOT":0,"MEAN_MOTION_DDOT":0},{"OBJECT_NAME":"WFOV (USA 332)","OBJECT_ID":"2022-073A","EPOCH":"2026-03-03T23:22:38.465184","MEAN_MOTION":1.0027632,"ECCENTRICITY":0.0001704,"INCLINATION":3.4411,"RA_OF_ASC_NODE":79.8885,"ARG_OF_PERICENTER":215.7923,"MEAN_ANOMALY":335.9357,"EPHEMERIS_TYPE":0,"CLASSIFICATION_TYPE":"U","NORAD_CAT_ID":52940,"ELEMENT_SET_NO":999,"REV_AT_EPOCH":1331,"BSTAR":0,"MEAN_MOTION_DOT":-3.74e-6,"MEAN_MOTION_DDOT":0},{"OBJECT_NAME":"TIANLIAN 2-03","OBJECT_ID":"2022-078A","EPOCH":"2026-03-04T03:49:01.145856","MEAN_MOTION":1.0027198,"ECCENTRICITY":0.0003358,"INCLINATION":0.404,"RA_OF_ASC_NODE":73.0124,"ARG_OF_PERICENTER":252.5177,"MEAN_ANOMALY":264.2193,"EPHEMERIS_TYPE":0,"CLASSIFICATION_TYPE":"U","NORAD_CAT_ID":53100,"ELEMENT_SET_NO":999,"REV_AT_EPOCH":1349,"BSTAR":0,"MEAN_MOTION_DOT":5.9e-7,"MEAN_MOTION_DDOT":0},{"OBJECT_NAME":"SBIRS GEO-6 (USA 336)","OBJECT_ID":"2022-092A","EPOCH":"2026-03-04T02:12:05.658624","MEAN_MOTION":1.00271672,"ECCENTRICITY":0.0002309,"INCLINATION":3.4381,"RA_OF_ASC_NODE":315.8302,"ARG_OF_PERICENTER":21.2989,"MEAN_ANOMALY":356.7154,"EPHEMERIS_TYPE":0,"CLASSIFICATION_TYPE":"U","NORAD_CAT_ID":53355,"ELEMENT_SET_NO":999,"REV_AT_EPOCH":1318,"BSTAR":0,"MEAN_MOTION_DOT":-3.06e-6,"MEAN_MOTION_DDOT":0},{"OBJECT_NAME":"EUTELSAT KONNECT VHTS","OBJECT_ID":"2022-110A","EPOCH":"2026-03-03T22:38:47.315616","MEAN_MOTION":1.00281471,"ECCENTRICITY":0.0003432,"INCLINATION":0.0576,"RA_OF_ASC_NODE":103.9798,"ARG_OF_PERICENTER":210.785,"MEAN_ANOMALY":189.3183,"EPHEMERIS_TYPE":0,"CLASSIFICATION_TYPE":"U","NORAD_CAT_ID":53765,"ELEMENT_SET_NO":999,"REV_AT_EPOCH":578,"BSTAR":0,"MEAN_MOTION_DOT":5.0e-8,"MEAN_MOTION_DDOT":0},{"OBJECT_NAME":"ZHONGXING-1E","OBJECT_ID":"2022-112A","EPOCH":"2026-03-04T04:07:38.638272","MEAN_MOTION":1.00269686,"ECCENTRICITY":0.0003392,"INCLINATION":0.0201,"RA_OF_ASC_NODE":116.5156,"ARG_OF_PERICENTER":186.6498,"MEAN_ANOMALY":2.0144,"EPHEMERIS_TYPE":0,"CLASSIFICATION_TYPE":"U","NORAD_CAT_ID":53813,"ELEMENT_SET_NO":999,"REV_AT_EPOCH":1279,"BSTAR":0,"MEAN_MOTION_DOT":-1.61e-6,"MEAN_MOTION_DDOT":0},{"OBJECT_NAME":"SES-20","OBJECT_ID":"2022-123A","EPOCH":"2026-03-04T00:36:26.633664","MEAN_MOTION":1.00270678,"ECCENTRICITY":0.0001428,"INCLINATION":0.0167,"RA_OF_ASC_NODE":105.8069,"ARG_OF_PERICENTER":319.3827,"MEAN_ANOMALY":2.5712,"EPHEMERIS_TYPE":0,"CLASSIFICATION_TYPE":"U","NORAD_CAT_ID":53960,"ELEMENT_SET_NO":999,"REV_AT_EPOCH":1247,"BSTAR":0,"MEAN_MOTION_DOT":-1.14e-6,"MEAN_MOTION_DDOT":0},{"OBJECT_NAME":"SES-21","OBJECT_ID":"2022-123B","EPOCH":"2026-03-03T21:55:03.525600","MEAN_MOTION":1.00274058,"ECCENTRICITY":0.0001123,"INCLINATION":0.0282,"RA_OF_ASC_NODE":64.9709,"ARG_OF_PERICENTER":288.3133,"MEAN_ANOMALY":6.1492,"EPHEMERIS_TYPE":0,"CLASSIFICATION_TYPE":"U","NORAD_CAT_ID":53961,"ELEMENT_SET_NO":999,"REV_AT_EPOCH":615,"BSTAR":0,"MEAN_MOTION_DOT":5.6e-7,"MEAN_MOTION_DDOT":0},{"OBJECT_NAME":"GALAXY 33 (G-33)","OBJECT_ID":"2022-128A","EPOCH":"2026-03-04T03:08:05.068608","MEAN_MOTION":1.00273446,"ECCENTRICITY":0.0001915,"INCLINATION":0.018,"RA_OF_ASC_NODE":168.7038,"ARG_OF_PERICENTER":172.7127,"MEAN_ANOMALY":94.515,"EPHEMERIS_TYPE":0,"CLASSIFICATION_TYPE":"U","NORAD_CAT_ID":54026,"ELEMENT_SET_NO":999,"REV_AT_EPOCH":1268,"BSTAR":0,"MEAN_MOTION_DOT":0,"MEAN_MOTION_DDOT":0},{"OBJECT_NAME":"GALAXY 34 (G-34)","OBJECT_ID":"2022-128B","EPOCH":"2026-03-04T03:09:19.949760","MEAN_MOTION":1.00272922,"ECCENTRICITY":0.0001372,"INCLINATION":0.011,"RA_OF_ASC_NODE":135.8392,"ARG_OF_PERICENTER":210.4055,"MEAN_ANOMALY":93.9736,"EPHEMERIS_TYPE":0,"CLASSIFICATION_TYPE":"U","NORAD_CAT_ID":54027,"ELEMENT_SET_NO":999,"REV_AT_EPOCH":1285,"BSTAR":0,"MEAN_MOTION_DOT":4.6e-7,"MEAN_MOTION_DDOT":0},{"OBJECT_NAME":"ANGOSAT 2","OBJECT_ID":"2022-131A","EPOCH":"2026-03-04T03:52:38.299296","MEAN_MOTION":1.00273854,"ECCENTRICITY":5.58e-5,"INCLINATION":0.0111,"RA_OF_ASC_NODE":145.4428,"ARG_OF_PERICENTER":297.2504,"MEAN_ANOMALY":160.369,"EPHEMERIS_TYPE":0,"CLASSIFICATION_TYPE":"U","NORAD_CAT_ID":54033,"ELEMENT_SET_NO":999,"REV_AT_EPOCH":1242,"BSTAR":0,"MEAN_MOTION_DOT":1.23e-6,"MEAN_MOTION_DDOT":0},{"OBJECT_NAME":"EUTELSAT HOTBIRD 13F","OBJECT_ID":"2022-134A","EPOCH":"2026-03-04T01:22:38.726688","MEAN_MOTION":1.00272044,"ECCENTRICITY":0.0002095,"INCLINATION":0.0579,"RA_OF_ASC_NODE":296.5026,"ARG_OF_PERICENTER":61.1445,"MEAN_ANOMALY":197.8064,"EPHEMERIS_TYPE":0,"CLASSIFICATION_TYPE":"U","NORAD_CAT_ID":54048,"ELEMENT_SET_NO":999,"REV_AT_EPOCH":1232,"BSTAR":0,"MEAN_MOTION_DOT":7.4e-7,"MEAN_MOTION_DDOT":0},{"OBJECT_NAME":"LDPE-2","OBJECT_ID":"2022-144A","EPOCH":"2026-03-03T23:07:22.078272","MEAN_MOTION":1.00558122,"ECCENTRICITY":5.49e-5,"INCLINATION":5.3873,"RA_OF_ASC_NODE":64.3101,"ARG_OF_PERICENTER":225.4346,"MEAN_ANOMALY":321.5911,"EPHEMERIS_TYPE":0,"CLASSIFICATION_TYPE":"U","NORAD_CAT_ID":54219,"ELEMENT_SET_NO":999,"REV_AT_EPOCH":1078,"BSTAR":0,"MEAN_MOTION_DOT":-3.59e-6,"MEAN_MOTION_DDOT":0},{"OBJECT_NAME":"EUTELSAT HOTBIRD 13G","OBJECT_ID":"2022-146A","EPOCH":"2026-03-04T03:49:46.073856","MEAN_MOTION":1.002719,"ECCENTRICITY":0.0001927,"INCLINATION":0.0479,"RA_OF_ASC_NODE":231.0058,"ARG_OF_PERICENTER":312.9447,"MEAN_ANOMALY":48.3914,"EPHEMERIS_TYPE":0,"CLASSIFICATION_TYPE":"U","NORAD_CAT_ID":54225,"ELEMENT_SET_NO":999,"REV_AT_EPOCH":641,"BSTAR":0,"MEAN_MOTION_DOT":7.4e-7,"MEAN_MOTION_DDOT":0},{"OBJECT_NAME":"ZHONGXING-19","OBJECT_ID":"2022-148A","EPOCH":"2026-03-04T04:34:38.682336","MEAN_MOTION":1.00271471,"ECCENTRICITY":0.0002608,"INCLINATION":0.018,"RA_OF_ASC_NODE":103.9402,"ARG_OF_PERICENTER":236.495,"MEAN_ANOMALY":53.3711,"EPHEMERIS_TYPE":0,"CLASSIFICATION_TYPE":"U","NORAD_CAT_ID":54230,"ELEMENT_SET_NO":999,"REV_AT_EPOCH":1232,"BSTAR":0,"MEAN_MOTION_DOT":-9.4e-7,"MEAN_MOTION_DDOT":0},{"OBJECT_NAME":"GALAXY 31 (G-31)","OBJECT_ID":"2022-153A","EPOCH":"2026-03-04T03:11:34.733760","MEAN_MOTION":1.00272403,"ECCENTRICITY":0.0001497,"INCLINATION":0.0142,"RA_OF_ASC_NODE":195.2478,"ARG_OF_PERICENTER":157.1848,"MEAN_ANOMALY":96.3339,"EPHEMERIS_TYPE":0,"CLASSIFICATION_TYPE":"U","NORAD_CAT_ID":54243,"ELEMENT_SET_NO":999,"REV_AT_EPOCH":607,"BSTAR":0,"MEAN_MOTION_DOT":1.0e-8,"MEAN_MOTION_DDOT":0}]
